COSMOS 2251 DEB         
1 35834U 93036ATG 17344.76387892 -.00000167  00000-0 -74138-4 0  9996
2 35834  73.9600  91.5954 0115563 145.3797   7.5883 14.11159954250031
